ORBCOMM FM37            
1 33064U 08031E   25183.53065773  .00000835  00000+0  13769-3 0  9997
2 33064  48.4400 270.6892 0004509  79.7465 293.6487 14.79807943916320
ORBCOMM FM40            
1 33065U 08031F   25183.48678139  .00001077  00000+0  16101-3 0  9990
2 33065  48.4417 254.6778 0005544  94.1696 279.2952 14.82075814916438
VESSELSAT 1             
1 37840U 11058C   25183.15879168  .00000320  00000+0  29902-4 0  9991
2 37840  19.9636   3.2943 0013686 351.6031   8.4144 14.11355811708424
ORBCOMM FM109           
1 40086U 14040A   25183.60180250  .00000284  00000+0  97588-4 0  9992
2 40086  47.0041 303.4921 0000841  39.0999 320.9947 14.58192124583311
ORBCOMM FM107           
1 40087U 14040B   25183.62969238  .00000409  00000+0  12425-3 0  9991
2 40087  47.0058 304.3199 0001274 309.4914  50.5859 14.58264765583396
ORBCOMM FM106           
1 40088U 14040C   25183.25811852  .00000596  00000+0  13114-3 0  9992
2 40088  47.0597 126.9690 0016160 137.7119 222.5020 14.69467129585695
ORBCOMM FM111           
1 40089U 14040D   25183.54447677  .00001623  00000+0  20520-3 0  9996
2 40089  47.0035 333.6910 0031199 265.4260  94.3073 14.86357846592515
ORBCOMM FM104           
1 40090U 14040E   25183.42919102  .00000292  00000+0  10249-3 0  9990
2 40090  47.0065 339.0577 0016957 273.4712  86.4233 14.56661515582848
